#aV2022 10 13  0  0  0.00000000     288 DD+AD WGS84 FIT  NGA
## 2231 345600.00000000   300.00000000 59865 0.0000000000000
+   32     1  2  3  4  5  6  7  8  9 10 11 12 13 14 15 16 17
+         18 19 20 21 22 23 24 25 26 27 28 29 30 31 32  0  0
+          0  0  0  0  0  0  0  0  0  0  0  0  0  0  0  0  0
+          0  0  0  0  0  0  0  0  0  0  0  0  0  0  0  0  0
+          0  0  0  0  0  0  0  0  0  0  0  0  0  0  0  0  0
++         2  2  2  2  2  2  2  2  2  2  2  2  2  2  2  2  2
++         2  2  2  2  2  2  2  2  2  2  2  2  2  2  2  0  0
++         0  0  0  0  0  0  0  0  0  0  0  0  0  0  0  0  0
++         0  0  0  0  0  0  0  0  0  0  0  0  0  0  0  0  0
++         0  0  0  0  0  0  0  0  0  0  0  0  0  0  0  0  0
%c cc cc ccc ccc cccc cccc cccc cccc ccccc ccccc ccccc ccccc
%c cc cc ccc ccc cccc cccc cccc cccc ccccc ccccc ccccc ccccc
%f  0.0000000  0.000000000  0.00000000000  0.000000000000000
%f  0.0000000  0.000000000  0.00000000000  0.000000000000000
%i    0    0    0    0      0      0      0      0         0
%i    0    0    0    0      0      0      0      0         0
/*      NGA, ST. LOUIS,MO.                                  
/*   EPHEMERIS COMPUTED FROM 2 DAYS OF DATA                 
/*   EPOCHA v8 SMOOTHER                                     
/*   G2139 IERS2010 SATIGS SATAPC                           
*  2022 10 13  9 40  0.00000000
P  1  22335.306257  14261.506721   3298.866990    268.303329                    
V  1   2605.072707   4045.431424 -31787.183095     -0.061125                    
P  2 -22274.822603 -14310.180340    573.493633   -642.535790                    
V  2   1429.984575  -2363.010473  31992.167796      0.015455                    
P  3  12202.252445  12444.066081  19951.786657   -363.907746                    
V  3  -3789.420788  25268.092130 -13254.598571     -0.041919                    
P  4  20875.803088   3769.553267  16047.614363   -104.306108                    
V  4 -18227.617120   9188.685256  21457.283775      0.060840                    
P  5  -7411.891884 -22106.008049 -12779.449395   -100.212484                    
V  5   3366.666984 -15798.993215  25850.165251     -0.014515                    
P  6   4282.324241 -14692.148714  21759.056246    489.820401                    
V  6  22208.302714  16080.533185   6577.436517      0.109865                    
P  7  21346.518594   2036.843129 -15559.407542    299.166614                    
V  7  15158.433472  13729.256496  21519.308081     -0.037644                    
P  8  12776.848284  10236.002831 -21020.914957    -88.649084                    
V  8 -23810.963284  11704.688456  -8434.773228     -0.016687                    
P  9  24933.418924  -6359.438831   6594.473796   -283.822622                    
V  9  -6500.765021   6136.787290  30094.288066      0.051804                    
P 10 -11336.493798  19590.891384 -13486.787233     -7.300465                    
V 10   -205.583377 -17600.272681 -25413.783070     -0.016131                    
P 11  -6687.012051 -20012.612306  16156.510296    -25.358374                    
V 11  16965.119287  11626.279658  21389.502508     -0.043198                    
P 12 -11267.365552 -13536.989956  19646.798695   -291.701854                    
V 12   5721.569147 -24853.371338 -13558.896955     -0.044196                    
P 13  -3669.887867 -14667.352995 -22005.305470    405.184440                    
V 13  26505.005696  -7359.979026    670.490223      0.070496                    
P 14  13219.277383 -17668.466608 -14692.741585    -95.499715                    
V 14   -399.530929  18886.645807 -23168.238041      0.038173                    
P 15 -14250.438020  -9482.759665 -20808.736827    -21.286245                    
V 15  21385.675104 -13890.671576  -8203.868698      0.031471                    
P 16    646.448246  25101.500946  -8181.525214   -526.132914                    
V 16  -4700.455173   9383.407332  29861.184766     -0.005629                    
P 17  21824.380737 -13406.146403   7591.212117    668.296245                    
V 17   9165.765733  -1175.830615 -30124.050866      0.036219                    
P 18 -20190.861306   -623.073498 -17322.585687     16.309068                    
V 18 -16515.652431 -14456.386311  19637.201104     -0.133348                    
P 19  14175.045207 -15623.565635  15742.792540    223.194355                    
V 19  20105.312628  -4381.173387 -22367.298948      0.050619                    
P 20   -692.503090 -26663.038444    899.359768    478.761373                    
V 20   3171.265347    966.345464  31224.186910     -0.030984                    
P 21  20620.304179  16543.921876  -4655.893519    158.091041                    
V 21  -6739.498424  -1565.911378 -30563.726570     -0.006217                    
P 22 -10813.579880  16819.835380  17815.095199    344.859690                    
V 22 -21210.538340   5524.504127 -18703.577620      0.069567                    
P 23 -14556.007391   9549.356616 -20029.607257     -0.957064                    
V 23   1025.370550 -25425.717572 -13001.616662     -0.002348                    
P 24 -22208.885329 -14943.882072  -1439.780115    101.568489                    
V 24   2927.468591  -2025.990589 -30823.136917     -0.144337                    
P 25 -15199.294845   -665.562128  21472.150357    381.903322                    
V 25   2632.983713 -27867.776334   1255.389680      0.039159                    
P 26  -3614.649230  25938.576334   3101.824800    232.275579                    
V 26  -3641.142800  -4289.490798  31071.638441      0.014392                    
P 27    111.067762  15945.570278 -21390.150319    198.740680                    
V 27 -24754.183420  10039.755702   7818.843454     -0.062249                    
P 28   9305.447920 -24121.811873  -6116.209969    329.573933                    
V 28    673.452776   8680.383938 -30449.643545     -0.046702                    
P 29 -25219.904990   3280.323124   7761.433699   -559.252681                    
V 29   8650.538943  -5176.037693  30047.315036     -0.029309                    
P 30  13808.751474  -8799.631171 -20858.860328   -537.223481                    
V 30  20915.565646  16685.362761   6524.519791      0.000359                    
P 31  -3948.984434  15619.897245  20886.451952   -196.625269                    
V 31 -21936.918549 -15730.434653   8016.785356     -0.013012                    
P 32 -19083.954196  15793.993328   9455.729019   -261.944702                    
V 32 -11943.235852   2346.869996 -28664.416772     -0.119044                    
EOF
